STARLINK-31692          
1 59577U 24076P   26068.18028968  .00000913  00000+0  42720-4 0  9997
2 59577  43.0042  11.9462 0001470 261.8483  98.2202 15.27578376106422
NUSAT-50 (NANCY ROMAN)  
1 60493U 24149AB  26068.80227738  .00012094  00000+0  42252-3 0  9994
2 60493  97.3817 150.7693 0002523 238.0469 122.0527 15.29713355 86930
